CCSDS_OMM_VERS = 2.0
CREATION_DATE  = 
ORIGINATOR     = 

OBJECT_NAME    = 2025-234A
OBJECT_ID      = 2025-234A
CENTER_NAME    = EARTH
REF_FRAME      = TEME
TIME_SYSTEM    = UTC
MEAN_ELEMENT_THEORY = SGP/SGP4

EPOCH          = 2025-11-12T21:49:24.657888
MEAN_MOTION    = 15.23135943
ECCENTRICITY   = .00146785
INCLINATION    = 97.4603
RA_OF_ASC_NODE = 22.3900
ARG_OF_PERICENTER = 198.4787
MEAN_ANOMALY   = 161.5919

EPHEMERIS_TYPE = 0
CLASSIFICATION_TYPE = U
NORAD_CAT_ID   = 66053
ELEMENT_SET_NO = 999
REV_AT_EPOCH   = 377
BSTAR          = .22920901E-2
MEAN_MOTION_DOT = .54549E-3
MEAN_MOTION_DDOT = 0

CCSDS_OMM_VERS = 2.0
CREATION_DATE  = 
ORIGINATOR     = 

OBJECT_NAME    = 2025-234B
OBJECT_ID      = 2025-234B
CENTER_NAME    = EARTH
REF_FRAME      = TEME
TIME_SYSTEM    = UTC
MEAN_ELEMENT_THEORY = SGP/SGP4

EPOCH          = 2025-11-12T22:12:04.436640
MEAN_MOTION    = 15.21369659
ECCENTRICITY   = .00146857
INCLINATION    = 97.5032
RA_OF_ASC_NODE = 22.5024
ARG_OF_PERICENTER = 189.8150
MEAN_ANOMALY   = 170.2801

EPHEMERIS_TYPE = 0
CLASSIFICATION_TYPE = U
NORAD_CAT_ID   = 66054
ELEMENT_SET_NO = 999
REV_AT_EPOCH   = 377
BSTAR          = .77608699E-3
MEAN_MOTION_DOT = .17402E-3
MEAN_MOTION_DDOT = 0

CCSDS_OMM_VERS = 2.0
CREATION_DATE  = 
ORIGINATOR     = 

OBJECT_NAME    = 2025-234C
OBJECT_ID      = 2025-234C
CENTER_NAME    = EARTH
REF_FRAME      = TEME
TIME_SYSTEM    = UTC
MEAN_ELEMENT_THEORY = SGP/SGP4

EPOCH          = 2025-11-12T22:09:07.777152
MEAN_MOTION    = 15.21501082
ECCENTRICITY   = .00153237
INCLINATION    = 97.4555
RA_OF_ASC_NODE = 22.3565
ARG_OF_PERICENTER = 191.6770
MEAN_ANOMALY   = 168.4113

EPHEMERIS_TYPE = 0
CLASSIFICATION_TYPE = U
NORAD_CAT_ID   = 66055
ELEMENT_SET_NO = 999
REV_AT_EPOCH   = 377
BSTAR          = .64125349E-3
MEAN_MOTION_DOT = .1442E-3
MEAN_MOTION_DDOT = 0

CCSDS_OMM_VERS = 2.0
CREATION_DATE  = 
ORIGINATOR     = 

OBJECT_NAME    = 2025-234D
OBJECT_ID      = 2025-234D
CENTER_NAME    = EARTH
REF_FRAME      = TEME
TIME_SYSTEM    = UTC
MEAN_ELEMENT_THEORY = SGP/SGP4

EPOCH          = 2025-11-12T17:18:39.817152
MEAN_MOTION    = 15.22224352
ECCENTRICITY   = .00150072
INCLINATION    = 97.4531
RA_OF_ASC_NODE = 22.1596
ARG_OF_PERICENTER = 192.6402
MEAN_ANOMALY   = 167.4460

EPHEMERIS_TYPE = 0
CLASSIFICATION_TYPE = U
NORAD_CAT_ID   = 66056
ELEMENT_SET_NO = 999
REV_AT_EPOCH   = 373
BSTAR          = .20938909E-2
MEAN_MOTION_DOT = .48472E-3
MEAN_MOTION_DDOT = 0

CCSDS_OMM_VERS = 2.0
CREATION_DATE  = 
ORIGINATOR     = 

OBJECT_NAME    = 2025-234E
OBJECT_ID      = 2025-234E
CENTER_NAME    = EARTH
REF_FRAME      = TEME
TIME_SYSTEM    = UTC
MEAN_ELEMENT_THEORY = SGP/SGP4

EPOCH          = 2025-11-12T22:27:14.586336
MEAN_MOTION    = 15.40620206
ECCENTRICITY   = .00100923
INCLINATION    = 97.4777
RA_OF_ASC_NODE = 22.7446
ARG_OF_PERICENTER = 229.2237
MEAN_ANOMALY   = 130.8134

EPHEMERIS_TYPE = 0
CLASSIFICATION_TYPE = U
NORAD_CAT_ID   = 66057
ELEMENT_SET_NO = 999
REV_AT_EPOCH   = 379
BSTAR          = .25184419E-1
MEAN_MOTION_DOT = .1121354E-1
MEAN_MOTION_DDOT = 0

CCSDS_OMM_VERS = 2.0
CREATION_DATE  = 
ORIGINATOR     = 

OBJECT_NAME    = STARLINK-35552
OBJECT_ID      = 2025-235A
CENTER_NAME    = EARTH
REF_FRAME      = TEME
TIME_SYSTEM    = UTC
MEAN_ELEMENT_THEORY = SGP/SGP4

EPOCH          = 2025-11-12T22:00:01.999584
MEAN_MOTION    = 15.72598794
ECCENTRICITY   = .00016499
INCLINATION    = 53.1552
RA_OF_ASC_NODE = 68.6824
ARG_OF_PERICENTER = 87.7032
MEAN_ANOMALY   = 79.1787

EPHEMERIS_TYPE = 0
CLASSIFICATION_TYPE = U
NORAD_CAT_ID   = 66058
ELEMENT_SET_NO = 999
REV_AT_EPOCH   = 508
BSTAR          = -.92881889E-2
MEAN_MOTION_DOT = -.1133764E-1
MEAN_MOTION_DDOT = 0

CCSDS_OMM_VERS = 2.0
CREATION_DATE  = 
ORIGINATOR     = 

OBJECT_NAME    = STARLINK-35560
OBJECT_ID      = 2025-235B
CENTER_NAME    = EARTH
REF_FRAME      = TEME
TIME_SYSTEM    = UTC
MEAN_ELEMENT_THEORY = SGP/SGP4

EPOCH          = 2025-11-12T22:00:01.999584
MEAN_MOTION    = 15.49301435
ECCENTRICITY   = .00011974
INCLINATION    = 53.1601
RA_OF_ASC_NODE = 69.7164
ARG_OF_PERICENTER = 97.6459
MEAN_ANOMALY   = 278.9524

EPHEMERIS_TYPE = 0
CLASSIFICATION_TYPE = U
NORAD_CAT_ID   = 66059
ELEMENT_SET_NO = 999
REV_AT_EPOCH   = 508
BSTAR          = -.26217893E-2
MEAN_MOTION_DOT = -.143578E-2
MEAN_MOTION_DDOT = 0

CCSDS_OMM_VERS = 2.0
CREATION_DATE  = 
ORIGINATOR     = 

OBJECT_NAME    = STARLINK-35558
OBJECT_ID      = 2025-235C
CENTER_NAME    = EARTH
REF_FRAME      = TEME
TIME_SYSTEM    = UTC
MEAN_ELEMENT_THEORY = SGP/SGP4

EPOCH          = 2025-11-12T22:00:01.999584
MEAN_MOTION    = 15.45893761
ECCENTRICITY   = .00011237
INCLINATION    = 53.1601
RA_OF_ASC_NODE = 69.7212
ARG_OF_PERICENTER = 59.4341
MEAN_ANOMALY   = 314.1316

EPHEMERIS_TYPE = 0
CLASSIFICATION_TYPE = U
NORAD_CAT_ID   = 66060
ELEMENT_SET_NO = 999
REV_AT_EPOCH   = 508
BSTAR          = -.48191557E-1
MEAN_MOTION_DOT = -.2109668E-1
MEAN_MOTION_DDOT = 0

CCSDS_OMM_VERS = 2.0
CREATION_DATE  = 
ORIGINATOR     = 

OBJECT_NAME    = STARLINK-35566
OBJECT_ID      = 2025-235D
CENTER_NAME    = EARTH
REF_FRAME      = TEME
TIME_SYSTEM    = UTC
MEAN_ELEMENT_THEORY = SGP/SGP4

EPOCH          = 2025-11-12T22:00:01.999584
MEAN_MOTION    = 15.49290075
ECCENTRICITY   = .00012391
INCLINATION    = 53.1600
RA_OF_ASC_NODE = 69.7086
ARG_OF_PERICENTER = 93.5547
MEAN_ANOMALY   = 286.8926

EPHEMERIS_TYPE = 0
CLASSIFICATION_TYPE = U
NORAD_CAT_ID   = 66061
ELEMENT_SET_NO = 999
REV_AT_EPOCH   = 508
BSTAR          = -.23119737E-2
MEAN_MOTION_DOT = -.126882E-2
MEAN_MOTION_DDOT = 0

CCSDS_OMM_VERS = 2.0
CREATION_DATE  = 
ORIGINATOR     = 

OBJECT_NAME    = STARLINK-35421
OBJECT_ID      = 2025-235E
CENTER_NAME    = EARTH
REF_FRAME      = TEME
TIME_SYSTEM    = UTC
MEAN_ELEMENT_THEORY = SGP/SGP4

EPOCH          = 2025-11-12T22:00:01.999584
MEAN_MOTION    = 15.49285558
ECCENTRICITY   = .00012246
INCLINATION    = 53.1600
RA_OF_ASC_NODE = 69.7040
ARG_OF_PERICENTER = 113.7116
MEAN_ANOMALY   = 268.6173

EPHEMERIS_TYPE = 0
CLASSIFICATION_TYPE = U
NORAD_CAT_ID   = 66062
ELEMENT_SET_NO = 999
REV_AT_EPOCH   = 508
BSTAR          = -.83992973E-3
MEAN_MOTION_DOT = -.46844E-3
MEAN_MOTION_DDOT = 0

CCSDS_OMM_VERS = 2.0
CREATION_DATE  = 
ORIGINATOR     = 

OBJECT_NAME    = STARLINK-35562
OBJECT_ID      = 2025-235F
CENTER_NAME    = EARTH
REF_FRAME      = TEME
TIME_SYSTEM    = UTC
MEAN_ELEMENT_THEORY = SGP/SGP4

EPOCH          = 2025-11-12T22:00:01.999584
MEAN_MOTION    = 15.49329737
ECCENTRICITY   = .00012368
INCLINATION    = 53.1602
RA_OF_ASC_NODE = 69.7008
ARG_OF_PERICENTER = 116.3970
MEAN_ANOMALY   = 267.8422

EPHEMERIS_TYPE = 0
CLASSIFICATION_TYPE = U
NORAD_CAT_ID   = 66063
ELEMENT_SET_NO = 999
REV_AT_EPOCH   = 508
BSTAR          = -.28263288E-2
MEAN_MOTION_DOT = -.154682E-2
MEAN_MOTION_DDOT = 0

CCSDS_OMM_VERS = 2.0
CREATION_DATE  = 
ORIGINATOR     = 

OBJECT_NAME    = STARLINK-35542
OBJECT_ID      = 2025-235G
CENTER_NAME    = EARTH
REF_FRAME      = TEME
TIME_SYSTEM    = UTC
MEAN_ELEMENT_THEORY = SGP/SGP4

EPOCH          = 2025-11-12T22:00:01.999584
MEAN_MOTION    = 15.39566937
ECCENTRICITY   = .00013909
INCLINATION    = 53.1604
RA_OF_ASC_NODE = 69.7922
ARG_OF_PERICENTER = 91.8633
MEAN_ANOMALY   = 245.7742

EPHEMERIS_TYPE = 0
CLASSIFICATION_TYPE = U
NORAD_CAT_ID   = 66064
ELEMENT_SET_NO = 999
REV_AT_EPOCH   = 508
BSTAR          = .71268428E-3
MEAN_MOTION_DOT = .28163E-3
MEAN_MOTION_DDOT = 0

CCSDS_OMM_VERS = 2.0
CREATION_DATE  = 
ORIGINATOR     = 

OBJECT_NAME    = STARLINK-35375
OBJECT_ID      = 2025-235H
CENTER_NAME    = EARTH
REF_FRAME      = TEME
TIME_SYSTEM    = UTC
MEAN_ELEMENT_THEORY = SGP/SGP4

EPOCH          = 2025-11-12T22:00:01.999584
MEAN_MOTION    = 15.41416881
ECCENTRICITY   = .00008146
INCLINATION    = 53.1604
RA_OF_ASC_NODE = 69.7435
ARG_OF_PERICENTER = 64.8617
MEAN_ANOMALY   = 297.3406

EPHEMERIS_TYPE = 0
CLASSIFICATION_TYPE = U
NORAD_CAT_ID   = 66065
ELEMENT_SET_NO = 999
REV_AT_EPOCH   = 508
BSTAR          = -.59496388E-1
MEAN_MOTION_DOT = -.226092E-1
MEAN_MOTION_DDOT = 0

CCSDS_OMM_VERS = 2.0
CREATION_DATE  = 
ORIGINATOR     = 

OBJECT_NAME    = STARLINK-35179
OBJECT_ID      = 2025-235J
CENTER_NAME    = EARTH
REF_FRAME      = TEME
TIME_SYSTEM    = UTC
MEAN_ELEMENT_THEORY = SGP/SGP4

EPOCH          = 2025-11-12T22:00:01.999584
MEAN_MOTION    = 15.47687493
ECCENTRICITY   = .00011614
INCLINATION    = 53.1602
RA_OF_ASC_NODE = 69.6910
ARG_OF_PERICENTER = 66.3764
MEAN_ANOMALY   = 322.4486

EPHEMERIS_TYPE = 0
CLASSIFICATION_TYPE = U
NORAD_CAT_ID   = 66066
ELEMENT_SET_NO = 999
REV_AT_EPOCH   = 508
BSTAR          = -.43698082E-1
MEAN_MOTION_DOT = -.204463E-1
MEAN_MOTION_DDOT = 0

CCSDS_OMM_VERS = 2.0
CREATION_DATE  = 
ORIGINATOR     = 

OBJECT_NAME    = STARLINK-35401
OBJECT_ID      = 2025-235K
CENTER_NAME    = EARTH
REF_FRAME      = TEME
TIME_SYSTEM    = UTC
MEAN_ELEMENT_THEORY = SGP/SGP4

EPOCH          = 2025-11-12T22:00:01.999584
MEAN_MOTION    = 15.49385558
ECCENTRICITY   = .00014516
INCLINATION    = 53.1601
RA_OF_ASC_NODE = 69.6846
ARG_OF_PERICENTER = 70.3375
MEAN_ANOMALY   = 321.3991

EPHEMERIS_TYPE = 0
CLASSIFICATION_TYPE = U
NORAD_CAT_ID   = 66067
ELEMENT_SET_NO = 999
REV_AT_EPOCH   = 503
BSTAR          = -.27659385E-2
MEAN_MOTION_DOT = -.151744E-2
MEAN_MOTION_DDOT = 0

